ONEWEB-0634             
1 56075U 23043AF  24233.49517422  .00000087  00000+0  19757-3 0  9999
2 56075  87.9050  31.6810 0001906 101.9846 258.1498 13.15550026 68872
ONEWEB-0635             
1 56076U 23043AG  24233.49041103  .00000014  00000+0  33401-5 0  9992
2 56076  87.9047  31.7352 0001662  78.2221 281.9095 13.15547590 68906
ONEWEB-0636             
1 56077U 23043AH  24233.48248765 -.00000032  00000+0 -11862-3 0  9992
2 56077  87.9046  31.7063 0001669  80.8960 279.2359 13.15548442 68888
ONEWEB-0637             
1 56078U 23043AJ  24233.47614602 -.00000071  00000+0 -22379-3 0  9997
2 56078  87.9049  31.6850 0001775  79.9109 280.2221 13.15548179 68907
ONEWEB-0647             
1 56079U 23043AK  24233.47138654 -.00000113  00000+0 -33360-3 0  9995
2 56079  87.9045  31.7025 0001476  87.3610 272.7689 13.15550023 68890
ONEWEB-0651             
1 56080U 23043AL  24233.46663591 -.00000111  00000+0 -32781-3 0  9993
2 56080  87.9052  31.6825 0001873  81.3764 278.7579 13.15549123 70090
ONEWEB-0718             
1 56081U 23043AM  24233.46188828 -.00000079  00000+0 -24358-3 0  9993
2 56081  87.9050  31.6693 0002138 104.8350 255.3018 13.15547038 68908
ONEWEB-0561             
1 56710U 23068A   24233.52285734  .00000062  00000+0  12112-3 0  9995
2 56710  87.9206  46.8927 0001581  66.7356 293.3944 13.20772362 62338
